[{"OBJECT_NAME":"BB4","OBJECT_ID":"2023-133B","EPOCH":"2026-03-09T21:37:27.149088","MEAN_MOTION":14.03089986,"ECCENTRICITY":0.00081277,"INCLINATION":80.9964,"RA_OF_ASC_NODE":101.1751,"ARG_OF_PERICENTER":265.8023,"MEAN_ANOMALY":94.2214,"EPHEMERIS_TYPE":0,"CLASSIFICATION_TYPE":"U","NORAD_CAT_ID":57757,"ELEMENT_SET_NO":999,"REV_AT_EPOCH":12736,"BSTAR":0.00015013184,"MEAN_MOTION_DOT":2.45e-6,"MEAN_MOTION_DDOT":0},{"OBJECT_NAME":"FENGYUN 1C DEB","OBJECT_ID":"1999-025EM","EPOCH":"2026-03-09T13:06:31.671360","MEAN_MOTION":14.28755581,"ECCENTRICITY":0.01925072,"INCLINATION":99.0359,"RA_OF_ASC_NODE":275.0472,"ARG_OF_PERICENTER":39.4587,"MEAN_ANOMALY":15.0208,"EPHEMERIS_TYPE":0,"CLASSIFICATION_TYPE":"U","NORAD_CAT_ID":29843,"ELEMENT_SET_NO":999,"REV_AT_EPOCH":99521,"BSTAR":0.00033618046,"MEAN_MOTION_DOT":9.81e-6,"MEAN_MOTION_DDOT":0}]
